0 COSMOS 1275 DEB
1 15541U 81053KC  13282.37275028  .00000342  00000-0  29158-3 0   227
2 15541 082.8894 255.4216 0033788 174.5858 339.0991 13.84288782480556
0 COSMOS 1275 DEB
1 15541U 81053KC  13283.38670352  .00000309  00000-0  26193-3 0   238
2 15541 082.8892 254.6529 0033845 171.7259 352.0610 13.84289307480692
0 COSMOS 1275 DEB
1 15541U 81053KC  13285.96931252  .00000286  00000-0  24098-3 0   251
2 15541 082.8897 252.6945 0034013 164.4433 262.3169 13.84290912481055
0 COSMOS 1275 DEB
1 15541U 81053KC  13287.62883571  .00000332  00000-0  28177-3 0   261
2 15541 082.8901 251.4362 0034120 159.8142 252.3958 13.84291899481280
0 COSMOS 1275 DEB
1 15541U 81053KC  13288.65453970  .00000342  00000-0  29105-3 0   275
2 15541 082.8904 250.6585 0034187 156.9573 323.8952 13.84292452481420
0 COSMOS 1275 DEB
1 15541U 81053KC  13289.94456808  .00000337  00000-0  28628-3 0   285
2 15541 082.8907 249.6806 0034270 153.3515 272.6455 13.84293256481609
0 COSMOS 1275 DEB
1 15541U 81053KC  13290.95638683  .00000341  00000-0  28991-3 0   290
2 15541 082.8909 248.9135 0034333 150.5162 274.9706 13.84293606481743
0 COSMOS 1275 DEB
1 15541U 81053KC  13292.18429520  .00000348  00000-0  29637-3 0   302
2 15541 082.8911 247.9828 0034397 147.1374 274.1032 13.84294022481917
0 COSMOS 1275 DEB
1 15541U 81053KC  13293.36050242  .00000350  00000-0  29825-3 0   317
2 15541 082.8911 247.0912 0034461 143.8916 015.5989 13.84294708482076
0 COSMOS 1275 DEB
1 15541U 81053KC  13294.85816035  .00000344  00000-0  29229-3 0   324
2 15541 082.8911 245.9561 0034555 139.6789 279.0922 13.84295502482288
0 COSMOS 1275 DEB
1 15541U 81053KC  13296.02874331  .00000317  00000-0  26818-3 0   330
2 15541 082.8912 245.0689 0034618 136.4653 352.5498 13.84296262482443
